{
  "type": "FeatureCollection",
  "features": [
    {
      "type": "Feature",
      "properties": {
        "norad_id": 66600,
        "name": "STARLINK-35980",
        "group": "last-30-days",
        "lat": 22.54243909860612,
        "lon": 8.764959218435203,
        "alt_km": 388.6618011010878,
        "timestamp": "2025-12-08T21:31:03.448066+00:00",
        "meta_object_name": "STARLINK-35980",
        "meta_object_id": "2025-270N",
        "meta_epoch": "2025-12-08T14:00:01.999872",
        "meta_mean_motion": 15.59927233,
        "meta_eccentricity": 0.00013148,
        "meta_inclination": 42.999,
        "meta_ra_of_asc_node": 217.074,
        "meta_arg_of_pericenter": 253.053,
        "meta_mean_anomaly": 292.4164,
        "meta_ephemeris_type": 0,
        "meta_classification_type": "U",
        "meta_norad_cat_id": 66600,
        "meta_element_set_no": 999,
        "meta_rev_at_epoch": 363,
        "meta_bstar": -0.026959823,
        "meta_mean_motion_dot": -0.01965087,
        "meta_mean_motion_ddot": 0,
        "tle_line1": "1 66600U 25270N   25342.58335648 -.01965087  00000+0 -26960-1 0  9993",
        "tle_line2": "2 66600  42.9990 217.0740 0001314 253.0530 292.4164 15.59927233  3637"
      },
      "geometry": {
        "type": "Point",
        "coordinates": [
          8.764959218435203,
          22.54243909860612
        ]
      }
    },
    {
      "type": "Feature",
      "properties": {
        "norad_id": 66601,
        "name": "STARLINK-35978",
        "group": "last-30-days",
        "lat": 21.362725921204913,
        "lon": 10.392823844805653,
        "alt_km": 388.8271034100926,
        "timestamp": "2025-12-08T21:31:03.448076+00:00",
        "meta_object_name": "STARLINK-35978",
        "meta_object_id": "2025-270P",
        "meta_epoch": "2025-12-08T14:00:01.999872",
        "meta_mean_motion": 15.59924085,
        "meta_eccentricity": 0.00012664,
        "meta_inclination": 42.9991,
        "meta_ra_of_asc_node": 217.0692,
        "meta_arg_of_pericenter": 254.0295,
        "meta_mean_anomaly": 293.3593,
        "meta_ephemeris_type": 0,
        "meta_classification_type": "U",
        "meta_norad_cat_id": 66601,
        "meta_element_set_no": 999,
        "meta_rev_at_epoch": 357,
        "meta_bstar": -0.026907672,
        "meta_mean_motion_dot": -0.01961504,
        "meta_mean_motion_ddot": 0,
        "tle_line1": "1 66601U 25270P   25342.58335648 -.01961504  00000+0 -26908-1 0  9996",
        "tle_line2": "2 66601  42.9991 217.0692 0001266 254.0295 293.3593 15.59924085  3571"
      },
      "geometry": {
        "type": "Point",
        "coordinates": [
          10.392823844805653,
          21.362725921204913
        ]
      }
    },
    {
      "type": "Feature",
      "properties": {
        "norad_id": 66602,
        "name": "STARLINK-36050",
        "group": "last-30-days",
        "lat": 20.167845092635844,
        "lon": 11.993442973639308,
        "alt_km": 389.01641879510134,
        "timestamp": "2025-12-08T21:31:03.448086+00:00",
        "meta_object_name": "STARLINK-36050",
        "meta_object_id": "2025-270Q",
        "meta_epoch": "2025-12-08T14:00:01.999872",
        "meta_mean_motion": 15.59928389,
        "meta_eccentricity": 0.00013006,
        "meta_inclination": 42.9991,
        "meta_ra_of_asc_node": 217.064,
        "meta_arg_of_pericenter": 255.2804,
        "meta_mean_anomaly": 294.0237,
        "meta_ephemeris_type": 0,
        "meta_classification_type": "U",
        "meta_norad_cat_id": 66602,
        "meta_element_set_no": 999,
        "meta_rev_at_epoch": 363,
        "meta_bstar": -0.026990183,
        "meta_mean_motion_dot": -0.01967097,
        "meta_mean_motion_ddot": 0,
        "tle_line1": "1 66602U 25270Q   25342.58335648 -.01967097  00000+0 -26990-1 0  9991",
        "tle_line2": "2 66602  42.9991 217.0640 0001300 255.2804 294.0237 15.59928389  3634"
      },
      "geometry": {
        "type": "Point",
        "coordinates": [
          11.993442973639308,
          20.167845092635844
        ]
      }
    },
    {
      "type": "Feature",
      "properties": {
        "norad_id": 66603,
        "name": "STARLINK-36048",
        "group": "last-30-days",
        "lat": 18.958893917081145,
        "lon": 13.569160563614052,
        "alt_km": 389.16556572931677,
        "timestamp": "2025-12-08T21:31:03.448098+00:00",
        "meta_object_name": "STARLINK-36048",
        "meta_object_id": "2025-270R",
        "meta_epoch": "2025-12-08T14:00:01.999872",
        "meta_mean_motion": 15.59927545,
        "meta_eccentricity": 0.00013516,
        "meta_inclination": 42.9991,
        "meta_ra_of_asc_node": 217.0588,
        "meta_arg_of_pericenter": 254.2281,
        "meta_mean_anomaly": 296.995,
        "meta_ephemeris_type": 0,
        "meta_classification_type": "U",
        "meta_norad_cat_id": 66603,
        "meta_element_set_no": 999,
        "meta_rev_at_epoch": 363,
        "meta_bstar": -0.027000991,
        "meta_mean_motion_dot": -0.01967768,
        "meta_mean_motion_ddot": 0,
        "tle_line1": "1 66603U 25270R   25342.58335648 -.01967768  00000+0 -27001-1 0  9991",
        "tle_line2": "2 66603  42.9991 217.0588 0001351 254.2281 296.9950 15.59927545  3636"
      },
      "geometry": {
        "type": "Point",
        "coordinates": [
          13.569160563614052,
          18.958893917081145
        ]
      }
    },
    {
      "type": "Feature",
      "properties": {
        "norad_id": 66604,
        "name": "STARLINK-35977",
        "group": "last-30-days",
        "lat": 17.737476822869475,
        "lon": 15.121186248810059,
        "alt_km": 389.2439962157723,
        "timestamp": "2025-12-08T21:31:03.448109+00:00",
        "meta_object_name": "STARLINK-35977",
        "meta_object_id": "2025-270S",
        "meta_epoch": "2025-12-08T14:00:01.999872",
        "meta_mean_motion": 15.59926698,
        "meta_eccentricity": 0.00013591,
        "meta_inclination": 42.999,
        "meta_ra_of_asc_node": 217.0538,
        "meta_arg_of_pericenter": 250.5218,
        "meta_mean_anomaly": 302.6178,
        "meta_ephemeris_type": 0,
        "meta_classification_type": "U",
        "meta_norad_cat_id": 66604,
        "meta_element_set_no": 999,
        "meta_rev_at_epoch": 373,
        "meta_bstar": -0.026978032,
        "meta_mean_motion_dot": -0.01966248,
        "meta_mean_motion_ddot": 0,
        "tle_line1": "1 66604U 25270S   25342.58335648 -.01966248  00000+0 -26978-1 0  9996",
        "tle_line2": "2 66604  42.9990 217.0538 0001359 250.5218 302.6178 15.59926698  3734"
      },
      "geometry": {
        "type": "Point",
        "coordinates": [
          15.121186248810059,
          17.737476822869475
        ]
      }
    },
    {
      "type": "Feature",
      "properties": {
        "norad_id": 66605,
        "name": "STARLINK-36052",
        "group": "last-30-days",
        "lat": 16.502091509397257,
        "lon": 16.655183795401822,
        "alt_km": 389.50518228767123,
        "timestamp": "2025-12-08T21:31:03.448121+00:00",
        "meta_object_name": "STARLINK-36052",
        "meta_object_id": "2025-270T",
        "meta_epoch": "2025-12-08T14:00:01.999872",
        "meta_mean_motion": 15.59927572,
        "meta_eccentricity": 0.00013345,
        "meta_inclination": 42.999,
        "meta_ra_of_asc_node": 217.0496,
        "meta_arg_of_pericenter": 255.4947,
        "meta_mean_anomaly": 299.5631,
        "meta_ephemeris_type": 0,
        "meta_classification_type": "U",
        "meta_norad_cat_id": 66605,
        "meta_element_set_no": 999,
        "meta_rev_at_epoch": 373,
        "meta_bstar": -0.027008114,
        "meta_mean_motion_dot": -0.01968214,
        "meta_mean_motion_ddot": 0,
        "tle_line1": "1 66605U 25270T   25342.58335648 -.01968214  00000+0 -27008-1 0  9997",
        "tle_line2": "2 66605  42.9990 217.0496 0001334 255.4947 299.5631 15.59927572  3734"
      },
      "geometry": {
        "type": "Point",
        "coordinates": [
          16.655183795401822,
          16.502091509397257
        ]
      }
    },
    {
      "type": "Feature",
      "properties": {
        "norad_id": 66606,
        "name": "STARLINK-36063",
        "group": "last-30-days",
        "lat": 14.002905014035527,
        "lon": 19.659684112705893,
        "alt_km": 389.68583559983654,
        "timestamp": "2025-12-08T21:31:03.448131+00:00",
        "meta_object_name": "STARLINK-36063",
        "meta_object_id": "2025-270U",
        "meta_epoch": "2025-12-08T14:00:01.999872",
        "meta_mean_motion": 15.59926338,
        "meta_eccentricity": 0.00013701,
        "meta_inclination": 42.9992,
        "meta_ra_of_asc_node": 217.0394,
        "meta_arg_of_pericenter": 249.1845,
        "meta_mean_anomaly": 309.7064,
        "meta_ephemeris_type": 0,
        "meta_classification_type": "U",
        "meta_norad_cat_id": 66606,
        "meta_element_set_no": 999,
        "meta_rev_at_epoch": 373,
        "meta_bstar": -0.026972144,
        "meta_mean_motion_dot": -0.01965854,
        "meta_mean_motion_ddot": 0,
        "tle_line1": "1 66606U 25270U   25342.58335648 -.01965854  00000+0 -26972-1 0  9994",
        "tle_line2": "2 66606  42.9992 217.0394 0001370 249.1845 309.7064 15.59926338  3734"
      },
      "geometry": {
        "type": "Point",
        "coordinates": [
          19.659684112705893,
          14.002905014035527
        ]
      }
    }
  ]
}